NORAD_CAT_ID,OBJECT_NAME,OBJECT_TYPE,EPOCH,MEAN_MOTION,ECCENTRICITY,INCLINATION,RA_OF_ASC_NODE,ARG_OF_PERICENTER,MEAN_ANOMALY,BSTAR,MEAN_MOTION_DOT,MEAN_MOTION_DDOT,TLE_LINE0,TLE_LINE1,TLE_LINE2,SEMIMAJOR_AXIS,PERIOD,APOGEE,PERIGEE,DECAYED
52112.0,STARLINK-3734,PAYLOAD,2022-07-27 22:00:00,15.08833779,0.0001942,53.2151,248.2919,45.9587,251.86900000000003,0.0017347999999999,0.00027425,0.0,0 STARLINK-3734,1 52112U 22029AA  22208.91667824  .00027425  00000-0  17348-2 0  9998,2 52112  53.2151 248.2919 0001942  45.9587 251.8690 15.08833779  1305,6917.899,95.438,541.1080000000002,538.4209999999998,0.0
52112.0,STARLINK-3734,PAYLOAD,2022-07-28 06:00:00,15.08867736,0.0002002,53.2151,246.7961,46.5734,262.8481,-0.0016715,-0.00026812,0.0,0 STARLINK-3734,1 52112U 22029AA  22209.25001157 -.00026812  00000-0 -16715-2 0  9995,2 52112  53.2151 246.7961 0002002  46.5734 262.8481 15.08867736 21430,6917.795999999999,95.436,541.0459999999998,538.276,0.0
52112.0,STARLINK-3734,PAYLOAD,2022-07-28 14:00:01,15.08840226,0.0002116,53.2147,245.3007,41.7944,279.2455,0.0017227,0.00027236,0.0,0 STARLINK-3734,1 52112U 22029AA  22209.58334491  .00027236  00000-0  17227-2 0  9999,2 52112  53.2147 245.3007 0002116  41.7944 279.2455 15.08840226  1309,6917.88,95.438,541.2090000000002,538.281,0.0
52112.0,STARLINK-3734,PAYLOAD,2022-07-28 22:00:00,15.08830396,0.0001899,53.2148,243.8025,46.0473,286.6116,0.0010508,0.00016471,0.0,0 STARLINK-3734,1 52112U 22029AA  22209.91667824  .00016471  00000-0  10508-2 0  9999,2 52112  53.2148 243.8025 0001899  46.0473 286.6116 15.08830396  1308,6917.91,95.438,541.0880000000002,538.461,0.0
52112.0,STARLINK-3734,PAYLOAD,2022-07-29 06:00:00,15.08856771,0.0001961,53.2149,242.3069,45.3857,298.8593,-0.0019226,-0.00030771,0.0,0 STARLINK-3734,1 52112U 22029AA  22210.25001157 -.00030771  00000-0 -19226-2 0  9996,2 52112  53.2149 242.3069 0001961  45.3857 298.8593 15.08856771 21580,6917.829000000002,95.436,541.0509999999998,538.3380000000002,0.0
52112.0,STARLINK-3734,PAYLOAD,2022-07-29 14:00:01,15.08828857,0.0002073,53.2143,240.8112,41.1576,314.6895,0.0015718,0.00024808,0.0,0 STARLINK-3734,1 52112U 22029AA  22210.58334491  .00024808  00000-0  15718-2 0  9996,2 52112  53.2143 240.8112 0002073  41.1576 314.6895 15.08828857  1307,6917.9140000000025,95.438,541.214,538.345,0.0
52112.0,STARLINK-3734,PAYLOAD,2022-07-29 22:00:00,15.08818957,0.0001875999999999,53.2143,239.3131,46.8547,320.5946,0.0024428,0.00038781,0.0,0 STARLINK-3734,1 52112U 22029AA  22210.91667824  .00038781  00000-0  24428-2 0  9995,2 52112  53.2143 239.3131 0001876  46.8547 320.5946 15.08818957 21698,6917.945,95.439,541.1080000000002,538.512,0.0
52112.0,STARLINK-3734,PAYLOAD,2022-07-30 14:00:01,15.0883457,0.0002088,53.2138,236.3218,42.3099,348.3252,0.0010803,0.00016944,0.0,0 STARLINK-3734,1 52112U 22029AA  22211.58334491  .00016944  00000-0  10803-2 0  9999,2 52112  53.2138 236.3218 0002088  42.3099 348.3252 15.08834570 21792,6917.897,95.438,541.206,538.318,0.0
52112.0,STARLINK-3734,PAYLOAD,2022-07-30 22:00:00,15.08819675,0.0001905,53.2138,234.8236,48.216,354.0247,0.0025844,0.0004106,0.0,0 STARLINK-3734,1 52112U 22029AA  22211.91667824  .00041060  00000-0  25844-2 0  9993,2 52112  53.2138 234.8236 0001905  48.2160 354.0247 15.08819675  1308,6917.943,95.439,541.125,538.49,0.0
52112.0,STARLINK-3734,PAYLOAD,2022-07-31 14:00:01,15.08839258,0.000214,53.2136,231.8323,43.3625,22.0659,0.00066164,0.00010257,0.0,0 STARLINK-3734,1 52112U 22029AA  22212.58334491  .00010257  00000-0  66164-3 0  9993,2 52112  53.2136 231.8323 0002140  43.3625  22.0659 15.08839258 21944,6917.8830000000025,95.438,541.2280000000002,538.2669999999998,0.0
52112.0,STARLINK-3734,PAYLOAD,2022-07-31 22:00:00,15.08821698,0.0001976999999999,53.2137,230.3341,48.9625,28.074,0.0025721999999999,0.00040866,0.0,0 STARLINK-3734,1 52112U 22029AA  22212.91667824  .00040866  00000-0  25722-2 0  9992,2 52112  53.2137 230.3341 0001977  48.9625  28.0740 15.08821698  1301,6917.936,95.439,541.169,538.434,0.0
52112.0,STARLINK-3734,PAYLOAD,2022-08-01 14:00:01,15.08857074,0.0002194,53.2137,227.3427,43.1563,57.0707,-0.0024441999999999,-0.00038997,0.0,0 STARLINK-3734,1 52112U 22029AA  22213.58334491 -.00038997  00000-0 -24442-2 0  9999,2 52112  53.2137 227.3427 0002194  43.1563  57.0707 15.08857074  1304,6917.828,95.436,541.211,538.175,0.0
52112.0,STARLINK-3734,PAYLOAD,2022-08-01 22:00:00,15.08799278,0.000199,53.2139,225.8445,47.1883,64.6488,0.0024993,0.00039669,0.0,0 STARLINK-3734,1 52112U 22029AA  22213.91667824  .00039669  00000-0  24993-2 0  9991,2 52112  53.2139 225.8445 0001990  47.1883  64.6488 15.08799278  1302,6918.005,95.44,541.247,538.493,0.0
52112.0,STARLINK-3734,PAYLOAD,2022-08-02 06:00:02,15.08834531,0.0002177999999999,53.2141,224.3493,46.1008,77.3635,-0.0017389,-0.00027853,0.0,0 STARLINK-3734,1 52112U 22029AA  22214.25002315 -.00027853  00000-0 -17389-2 0  9992,2 52112  53.2141 224.3493 0002178  46.1008  77.3635 15.08834531 22196,6917.897,95.438,541.269,538.255,0.0
52112.0,STARLINK-3734,PAYLOAD,2022-08-02 14:00:01,15.08827019,0.0002253,53.2142,222.8531,43.0106,91.9629,-0.00017457,-3.065e-05,0.0,0 STARLINK-3734,1 52112U 22029AA  22214.58334491 -.00003065  00000-0 -17457-3 0  9997,2 52112  53.2142 222.8531 0002253  43.0106  91.9629 15.08827019 22246,6917.92,95.438,541.344,538.226,0.0
52112.0,STARLINK-3734,PAYLOAD,2022-08-03 14:00:01,15.08837774,0.0002346,53.2148,218.3638,44.5696,125.1388,-0.00068938,-0.00011243,0.0,0 STARLINK-3734,1 52112U 22029AA  22215.58334491 -.00011243  00000-0 -68938-3 0  9995,2 52112  53.2148 218.3638 0002346  44.5696 125.1388 15.08837774  1308,6917.887,95.438,541.375,538.129,0.0
52112.0,STARLINK-3734,PAYLOAD,2022-08-03 20:00:01,15.08812684,0.0002189,53.2153,217.2402,48.3579,40.0499,0.0021539,0.00034133,0.0,0 STARLINK-3734,1 52112U 22029AA  22215.83334491  .00034133  00000-0  21539-2 0  9999,2 52112  53.2153 217.2402 0002189  48.3579  40.0499 15.08812684 22436,6917.964,95.439,541.3430000000002,538.315,0.0
52112.0,STARLINK-3734,PAYLOAD,2022-08-03 22:00:01,15.08815653,0.0002204,53.2152,216.8658,49.5501,131.8141,0.0022548,0.00035756,0.0,0 STARLINK-3734,1 52112U 22029AA  22215.91668981  .00035756  00000-0  22548-2 0  9995,2 52112  53.2152 216.8658 0002204  49.5501 131.8141 15.08815653  1304,6917.955,95.439,541.345,538.295,0.0
52112.0,STARLINK-3734,PAYLOAD,2022-08-04 14:00:01,15.08848342,0.0002398,53.2152,213.8745,46.2711,158.1955,-0.0012866,-0.00020712,0.0,0 STARLINK-3734,1 52112U 22029AA  22216.58334491 -.00020712  00000-0 -12866-2 0  9995,2 52112  53.2152 213.8745 0002398  46.2711 158.1955 15.08848342 22544,6917.855,95.437,541.379,538.061,0.0
52112.0,STARLINK-3734,PAYLOAD,2022-08-04 22:00:00,15.08822488,0.0002254,53.2155,212.3767,51.3094,164.7568,0.0020964,0.00033218,0.0,0 STARLINK-3734,1 52112U 22029AA  22216.91667824  .00033218  00000-0  20964-2 0  9992,2 52112  53.2155 212.3767 0002254  51.3094 164.7568 15.08822488  1304,6917.934,95.439,541.3580000000002,538.24,0.0
52112.0,STARLINK-3734,PAYLOAD,2022-08-05 06:00:02,15.08845298,0.0002428,53.2154,210.8819,48.6534,179.0683,-0.00091723,-0.00014859,0.0,0 STARLINK-3734,1 52112U 22029AA  22217.25002315 -.00014859  00000-0 -91723-3 0  9992,2 52112  53.2154 210.8819 0002428  48.6534 179.0683 15.08845298 22646,6917.864000000001,95.437,541.409,538.05,0.0
52112.0,STARLINK-3734,PAYLOAD,2022-08-05 14:00:01,15.08857376,0.0002409,53.2152,209.3852,48.0368,191.2743,-0.001825,-0.00029231,0.0,0 STARLINK-3734,1 52112U 22029AA  22217.58335648 -.00029231  00000-0 -18250-2 0  9999,2 52112  53.2152 209.3852 0002409  48.0368 191.2743 15.08857376  1305,6917.8269999999975,95.436,541.359,538.026,0.0
52112.0,STARLINK-3734,PAYLOAD,2022-08-05 22:00:00,15.08830707,0.0002276999999999,53.2153,207.8876,53.2812,197.575,0.0020656,0.00032731,0.0,0 STARLINK-3734,1 52112U 22029AA  22217.91667824  .00032731  00000-0  20656-2 0  9990,2 52112  53.2153 207.8876 0002277  53.2812 197.5750 15.08830707 22747,6917.909000000002,95.438,541.349,538.1990000000002,0.0
52112.0,STARLINK-3734,PAYLOAD,2022-08-06 11:12:02,15.088422,0.0002342,53.2158,205.4191,52.0463,308.0741,0.00010888,1.445e-05,0.0,0 STARLINK-3734,1 52112U 22029AA  22218.46670089  .00001445  00000-0  10888-3 0  9993,2 52112  53.2158 205.4191 0002342  52.0463 308.0741 15.08842200 22838,6917.874,95.437,541.359,538.118,0.0
52112.0,STARLINK-3734,PAYLOAD,2022-08-06 14:00:01,15.08865006,0.0002413,53.2147,204.8961,50.1166,223.9372,-0.0021839,-0.00034903,0.0,0 STARLINK-3734,1 52112U 22029AA  22218.58334491 -.00034903  00000-0 -21839-2 0  9994,2 52112  53.2147 204.8961 0002413  50.1166 223.9372 15.08865006 22847,6917.804,95.436,541.3380000000002,538.0,0.0
52112.0,STARLINK-3734,PAYLOAD,2022-08-06 22:00:00,15.088463199999998,0.0002278,53.2147,203.3985,55.4279,230.2387,0.0005071,7.793e-05,0.0,0 STARLINK-3734,1 52112U 22029AA  22218.91667824  .00007793  00000-0  50710-3 0  9996,2 52112  53.2147 203.3985 0002278  55.4279 230.2387 15.08846320  1302,6917.861,95.437,541.302,538.15,0.0
52112.0,STARLINK-3734,PAYLOAD,2022-08-07 04:00:00,15.0885794,0.0002365,53.2145,202.2777,52.0872,152.286,-0.0035845,-0.00056916,0.0,0 STARLINK-3734,1 52112U 22029AA  22219.16667824 -.00056916  00000-0 -35845-2 0  9998,2 52112  53.2145 202.2777 0002365  52.0872 152.2860 15.08857940 22937,6917.826,95.436,541.327,538.054,0.0
52112.0,STARLINK-3734,PAYLOAD,2022-08-07 11:02:49,15.088480300000002,0.0002398,53.216,200.9587,53.5631,306.5582,0.00012198,1.654e-05,0.0,0 STARLINK-3734,1 52112U 22029AA  22219.46029606  .00001654  00000-0  12198-3 0  9995,2 52112  53.2160 200.9587 0002398  53.5631 306.5582 15.08848030 22983,6917.856,95.437,541.38,538.062,0.0
52112.0,STARLINK-3734,PAYLOAD,2022-08-07 14:00:01,15.08843932,0.0002355999999999,53.214,200.4069,50.5828,258.2701,-0.0023416,-0.00037368,0.0,0 STARLINK-3734,1 52112U 22029AA  22219.58334491 -.00037368  00000-0 -23416-2 0  9996,2 52112  53.2140 200.4069 0002356  50.5828 258.2701 15.08843932 22993,6917.868,95.437,541.363,538.104,0.0
